{
    "links": {
        "self": "http://www.neowsapp.com/rest/v1/neo/54041664?api_key=iIulBulltgU6a56xZRHN4H3l9WmuAYTsLGpBGhQ2"
    },
    "id": "54041664",
    "neo_reference_id": "54041664",
    "name": "(2020 NY)",
    "designation": "2020 NY",
    "nasa_jpl_url": "http://ssd.jpl.nasa.gov/sbdb.cgi?sstr=54041664",
    "absolute_magnitude_h": 26.185,
    "estimated_diameter": {
        "kilometers": {
            "estimated_diameter_min": 0.0154012148,
            "estimated_diameter_max": 0.0344381631
        },
        "meters": {
            "estimated_diameter_min": 15.401214751,
            "estimated_diameter_max": 34.4381631194
        },
        "miles": {
            "estimated_diameter_min": 0.0095698682,
            "estimated_diameter_max": 0.0213988759
        },
        "feet": {
            "estimated_diameter_min": 50.5289214038,
            "estimated_diameter_max": 112.9861030885
        }
    },
    "is_potentially_hazardous_asteroid": false,
    "close_approach_data": [
        {
            "close_approach_date": "1913-04-08",
            "close_approach_date_full": "1913-Apr-08 10:36",
            "epoch_date_close_approach": -1790342640000,
            "relative_velocity": {
                "kilometers_per_second": "12.5183058785",
                "kilometers_per_hour": "45065.9011625777",
                "miles_per_hour": "28002.1984196028"
            },
            "miss_distance": {
                "astronomical": "0.1030856921",
                "lunar": "40.1003342269",
                "kilometers": "15421399.965635827",
                "miles": "9582413.5962233326"
            },
            "orbiting_body": "Earth"
        },
        {
            "close_approach_date": "1918-04-15",
            "close_approach_date_full": "1918-Apr-15 13:34",
            "epoch_date_close_approach": -1631960760000,
            "relative_velocity": {
                "kilometers_per_second": "3.5334732916",
                "kilometers_per_hour": "12720.5038496991",
                "miles_per_hour": "7904.0264059422"
            },
            "miss_distance": {
                "astronomical": "1.9184902348",
                "lunar": "746.2927013372",
                "kilometers": "287002052.741879876",
                "miles": "178334806.0789632488"
            },
            "orbiting_body": "Juptr"
        },
        {
            "close_approach_date": "2020-07-09",
            "close_approach_date_full": "2020-Jul-09 15:35",
            "epoch_date_close_approach": 1594308900000,
            "relative_velocity": {
                "kilometers_per_second": "11.9901160891",
                "kilometers_per_hour": "43164.4179209234",
                "miles_per_hour": "26820.6906798093"
            },
            "miss_distance": {
                "astronomical": "0.004145635",
                "lunar": "1.612652015",
                "kilometers": "620178.16579745",
                "miles": "385360.84280681"
            },
            "orbiting_body": "Earth"
        },
        {
            "close_approach_date": "2020-07-09",
            "close_approach_date_full": "2020-Jul-09 23:46",
            "epoch_date_close_approach": 1594338360000,
            "relative_velocity": {
                "kilometers_per_second": "12.4133990734",
                "kilometers_per_hour": "44688.2366642965",
                "miles_per_hour": "27767.5323873236"
            },
            "miss_distance": {
                "astronomical": "0.0026458391",
                "lunar": "1.0292314099",
                "kilometers": "395811.893722717",
                "miles": "245946.1060868146"
            },
            "orbiting_body": "Moon"
        },
        {
            "close_approach_date": "2095-03-09",
            "close_approach_date_full": "2095-Mar-09 16:12",
            "epoch_date_close_approach": 3950525520000,
            "relative_velocity": {
                "kilometers_per_second": "3.6290184608",
                "kilometers_per_hour": "13064.466459043",
                "miles_per_hour": "8117.7513950648"
            },
            "miss_distance": {
                "astronomical": "1.9254299321",
                "lunar": "748.9922435869",
                "kilometers": "288040216.676404627",
                "miles": "178979891.2348807726"
            },
            "orbiting_body": "Juptr"
        }
    ],
    "orbital_data": {
        "orbit_id": "3",
        "orbit_determination_date": "2020-07-21 06:58:57",
        "first_observation_date": "2020-07-13",
        "last_observation_date": "2020-07-21",
        "data_arc_in_days": 8,
        "observations_used": 39,
        "orbit_uncertainty": "7",
        "minimum_orbit_intersection": ".00163885",
        "jupiter_tisserand_invariant": "3.425",
        "epoch_osculation": "2459000.5",
        "eccentricity": ".5824323150294817",
        "semi_major_axis": "2.190010986921947",
        "inclination": "5.804294936701658",
        "ascending_node_longitude": "288.9290122307079",
        "orbital_period": "1183.771465788085",
        "perihelion_distance": ".9144778178689974",
        "perihelion_argument": "315.741813911838",
        "aphelion_distance": "3.465544155974896",
        "perihelion_time": "2459007.487209119990",
        "mean_anomaly": "357.8751005950953",
        "mean_motion": ".3041127535206581",
        "equinox": "J2000",
        "orbit_class": {
            "orbit_class_type": "APO",
            "orbit_class_description": "Near-Earth asteroid orbits which cross the Earth’s orbit similar to that of 1862 Apollo",
            "orbit_class_range": "a (semi-major axis) > 1.0 AU; q (perihelion) < 1.017 AU"
        }
    },
    "is_sentry_object": false
}